$$SOE
2460721.500000000, A.D. 2025-Feb-15 00:00:00.0000, -5.721706817897559E+07, -3.441045690872124E+08, -4.118834671311516E+07,
2460728.500000000, A.D. 2025-Feb-22 00:00:00.0000, -4.563238959407161E+07, -3.463334779589472E+08, -4.124422994136170E+07,
2460735.500000000, A.D. 2025-Mar-01 00:00:00.0000, -3.399680464478113E+07, -3.481761822457393E+08, -4.125411283648083E+07,
2460742.500000000, A.D. 2025-Mar-08 00:00:00.0000, -2.232344962407131E+07, -3.496322866087134E+08, -4.121818139200674E+07,
2460749.500000000, A.D. 2025-Mar-15 00:00:00.0000, -1.062539029255393E+07, -3.507018347036742E+08, -4.113667183803761E+07,
2460756.500000000, A.D. 2025-Mar-22 00:00:00.0000, 1.084390437776453E+06, -3.513853012647321E+08, -4.100986926475042E+07,
2460763.500000000, A.D. 2025-Mar-29 00:00:00.0000, 1.279300559800603E+07, -3.516835860343271E+08, -4.083810651744701E+07,
2460770.500000000, A.D. 2025-Apr-05 00:00:00.0000, 2.448767835848274E+07, -3.515980064442530E+08, -4.062176314205496E+07,
2460777.500000000, A.D. 2025-Apr-12 00:00:00.0000, 3.615575540062708E+07, -3.511302889845390E+08, -4.036126420107308E+07,
2460784.500000000, A.D. 2025-Apr-19 00:00:00.0000, 4.778471927962562E+07, -3.502825601799550E+08, -4.005707901959734E+07,
2460791.500000000, A.D. 2025-Apr-26 00:00:00.0000, 5.936220005435095E+07, -3.490573374140762E+08, -3.970971990749797E+07,
2460798.500000000, A.D. 2025-May-03 00:00:00.0000, 7.087598630463079E+07, -3.474575196168234E+08, -3.931974087088582E+07,
2460805.500000000, A.D. 2025-May-10 00:00:00.0000, 8.231403557294206E+07, -3.454863778398914E+08, -3.888773631882206E+07,
2460812.500000000, A.D. 2025-May-17 00:00:00.0000, 9.366448427771561E+07, -3.431475457933170E+08, -3.841433977587262E+07,
2460819.500000000, A.D. 2025-May-24 00:00:00.0000, 1.049156572827279E+08, -3.404450104293305E+08, -3.790022262430125E+07,
2460826.500000000, A.D. 2025-May-31 00:00:00.0000, 1.160560775498216E+08, -3.373831022907863E+08, -3.734609289113817E+07,
2460833.500000000, A.D. 2025-Jun-07 00:00:00.0000, 1.270744754846783E+08, -3.339664844415681E+08, -3.675269394632968E+07,
2460840.500000000, A.D. 2025-Jun-14 00:00:00.0000, 1.379597956263371E+08, -3.302001406631587E+08, -3.612080295118423E+07,
2460847.500000000, A.D. 2025-Jun-21 00:00:00.0000, 1.487012019183851E+08, -3.260893662063943E+08, -3.545122943890265E+07,
2460854.500000000, A.D. 2025-Jun-28 00:00:00.0000, 1.592880847139841E+08, -3.216397593582237E+08, -3.474481417401066E+07,
2460861.500000000, A.D. 2025-Jul-05 00:00:00.0000, 1.697100680185513E+08, -3.168572116958131E+08, -3.400242797916327E+07,
2460868.500000000, A.D. 2025-Jul-12 00:00:00.0000, 1.799570157947930E+08, -3.117478978583893E+08, -3.322497048819305E+07,
2460875.500000000, A.D. 2025-Jul-19 00:00:00.0000, 1.900190375334665E+08, -3.063182654304159E+08, -3.241336889067838E+07,
2460882.500000000, A.D. 2025-Jul-26 00:00:00.0000, 1.998864933140636E+08, -3.005750250059149E+08, -3.156857669200778E+07,
2460889.500000000, A.D. 2025-Aug-02 00:00:00.0000, 2.095499984362397E+08, -2.945251404218549E+08, -3.069157249299292E+07,
2460896.500000000, A.D. 2025-Aug-09 00:00:00.0000, 2.190004276621766E+08, -2.881758191819415E+08, -2.978335879231353E+07,
2460903.500000000, A.D. 2025-Aug-16 00:00:00.0000, 2.282289191658849E+08, -2.815345031387721E+08, -2.884496082442577E+07,
2460910.500000000, A.D. 2025-Aug-23 00:00:00.0000, 2.372268785045190E+08, -2.746088594235805E+08, -2.787742545945130E+07,
2460917.500000000, A.D. 2025-Aug-30 00:00:00.0000, 2.459859829644236E+08, -2.674067709192492E+08, -2.688182013819344E+07,
2460924.500000000, A.D. 2025-Sep-06 00:00:00.0000, 2.544981848845490E+08, -2.599363252881172E+08, -2.585923163150573E+07,
2460931.500000000, A.D. 2025-Sep-13 00:00:00.0000, 2.627557123024054E+08, -2.522058050454791E+08, -2.481076467408717E+07,
2460938.500000000, A.D. 2025-Sep-20 00:00:00.0000, 2.707510702103602E+08, -2.442236803257504E+08, -2.373754090724435E+07,
2460945.500000000, A.D. 2025-Sep-27 00:00:00.0000, 2.784770434975537E+08, -2.359986012315995E+08, -2.264069797320800E+07,
2460952.500000000, A.D. 2025-Oct-04 00:00:00.0000, 2.859266995776296E+08, -2.275393892293639E+08, -2.152138853159995E+07,
2460959.500000000, A.D. 2025-Oct-11 00:00:00.0000, 2.930933903442608E+08, -2.188550285348319E+08, -2.038077924035564E+07,
2460966.500000000, A.D. 2025-Oct-18 00:00:00.0000, 2.999707537531471E+08, -2.099546577631971E+08, -1.922004974902880E+07,
2460973.500000000, A.D. 2025-Oct-25 00:00:00.0000, 3.065527151848148E+08, -2.008475618305564E+08, -1.804039171589318E+07,
2460980.500000000, A.D. 2025-Nov-01 00:00:00.0000, 3.128334886420345E+08, -1.915431640893632E+08, -1.684300785073721E+07,
2460987.500000000, A.D. 2025-Nov-08 00:00:00.0000, 3.188075778294833E+08, -1.820510187266967E+08, -1.562911098866841E+07,
2460994.500000000, A.D. 2025-Nov-15 00:00:00.0000, 3.244697772744448E+08, -1.723808034796808E+08, -1.439992321291354E+07,
2461001.500000000, A.D. 2025-Nov-22 00:00:00.0000, 3.298151739021332E+08, -1.625423124409505E+08, -1.315667504517908E+07,
2461008.500000000, A.D. 2025-Nov-29 00:00:00.0000, 3.348391489270629E+08, -1.525454478127092E+08, -1.190060459618613E+07,
2461015.500000000, A.D. 2025-Dec-06 00:00:00.0000, 3.395373777981497E+08, -1.424002107430712E+08, -1.063295647791519E+07,
2461022.500000000, A.D. 2025-Dec-13 00:00:00.0000, 3.439058286400608E+08, -1.321166946117515E+08, -9.354980792182639E+06,
2461029.500000000, A.D. 2025-Dec-20 00:00:00.0000, 3.479407626901305E+08, -1.217050797336736E+08, -8.067932431703627E+06,
2461036.500000000, A.D. 2025-Dec-27 00:00:00.0000, 3.516387356661464E+08, -1.111756268803781E+08, -6.773070382556356E+06,
2461043.500000000, A.D. 2026-Jan-03 00:00:00.0000, 3.549965986157132E+08, -1.005386702272931E+08, -5.471656943562455E+06,
2461050.500000000, A.D. 2026-Jan-10 00:00:00.0000, 3.580114983656965E+08, -8.980461039802891E+07, -4.164956927101307E+06,
2461057.500000000, A.D. 2026-Jan-17 00:00:00.0000, 3.606808778122683E+08, -7.898390768879065E+07, -2.854236869051110E+06,
2461064.500000000, A.D. 2026-Jan-24 00:00:00.0000, 3.630024761372706E+08, -6.808707544139019E+07, -1.540764251903459E+06,
2461071.500000000, A.D. 2026-Jan-31 00:00:00.0000, 3.649743289821038E+08, -5.712467356370994E+07, -2.258067424205877E+05,
2461078.500000000, A.D. 2026-Feb-07 00:00:00.0000, 3.665947686475734E+08, -4.610730224772160E+07, 1.089368547289703E+06,
2461085.500000000, A.D. 2026-Feb-14 00:00:00.0000, 3.678624245758651E+08, -3.504559589463718E+07, 2.403495752017483E+06,
2461092.500000000, A.D. 2026-Feb-21 00:00:00.0000, 3.687762244992686E+08, -2.395021666258439E+07, 3.715310911389363E+06,
2461099.500000000, A.D. 2026-Feb-28 00:00:00.0000, 3.693353951682304E+08, -1.283184647109209E+07, 5.023552788152504E+06,
2461106.500000000, A.D. 2026-Mar-07 00:00:00.0000, 3.695394606030453E+08, -1.701179400731730E+06, 6.326963877247933E+06,
2461113.500000000, A.D. 2026-Mar-14 00:00:00.0000, 3.693882406456774E+08, 9.431083189958578E+06, 7.624291160901088E+06,
2461120.500000000, A.D. 2026-Mar-21 00:00:00.0000, 3.688818515954561E+08, 2.055423774158578E+07, 8.914286683910564E+06,
2461127.500000000, A.D. 2026-Mar-28 00:00:00.0000, 3.680207069251392E+08, 3.165758480494976E+07, 1.019570821929979E+07,
2461134.500000000, A.D. 2026-Apr-04 00:00:00.0000, 3.668055174789810E+08, 4.273043562750895E+07, 1.146732000272641E+07,
2461141.500000000, A.D. 2026-Apr-11 00:00:00.0000, 3.652372914278185E+08, 5.376211866131866E+07, 1.272789348270588E+07,
2461148.500000000, A.D. 2026-Apr-18 00:00:00.0000, 3.633173341383005E+08, 6.474198599275884E+07, 1.397620807276901E+07,
2461155.500000000, A.D. 2026-Apr-25 00:00:00.0000, 3.610472479985644E+08, 7.565941971708766E+07, 1.521105190368374E+07,
2461162.500000000, A.D. 2026-May-02 00:00:00.0000, 3.584289322274260E+08, 8.650383823737727E+07, 1.643122257163788E+07,
2461169.500000000, A.D. 2026-May-09 00:00:00.0000, 3.554645827885781E+08, 9.726470243073104E+07, 1.763552786670723E+07,
2461176.500000000, A.D. 2026-May-16 00:00:00.0000, 3.521566927839615E+08, 1.079315218275686E+08, 1.882278645912181E+07,
2461183.500000000, A.D. 2026-May-23 00:00:00.0000, 3.485080533695933E+08, 1.184938618328776E+08, 1.999182862235540E+07,
2461190.500000000, A.D. 2026-May-30 00:00:00.0000, 3.445217531061363E+08, 1.289413523203781E+08, 2.114149721066125E+07,
2461197.500000000, A.D. 2026-Jun-06 00:00:00.0000, 3.402011754264693E+08, 1.392636943375145E+08, 2.227064865449710E+07,
2461204.500000000, A.D. 2026-Jun-13 00:00:00.0000, 3.355499978823445E+08, 1.494506651246673E+08, 2.337815365429185E+07,
2461211.500000000, A.D. 2026-Jun-20 00:00:00.0000, 3.305721926575283E+08, 1.594921243801707E+08, 2.446289785741403E+07,
2461218.500000000, A.D. 2026-Jun-27 00:00:00.0000, 3.252720266388969E+08, 1.693780214392548E+08, 2.552378264667508E+07,
2461225.500000000, A.D. 2026-Jul-04 00:00:00.0000, 3.196540610365713E+08, 1.790984025994514E+08, 2.655972597748429E+07,
2461232.500000000, A.D. 2026-Jul-11 00:00:00.0000, 3.137231507975970E+08, 1.886434184671081E+08, 2.756966322990433E+07,
2461239.500000000, A.D. 2026-Jul-18 00:00:00.0000, 3.074844438955746E+08, 1.980033313567204E+08, 2.855254806945394E+07,
2461246.500000000, A.D. 2026-Jul-25 00:00:00.0000, 3.009433805095865E+08, 2.071685227513195E+08, 2.950735331487006E+07,
2461253.500000000, A.D. 2026-Aug-01 00:00:00.0000, 2.941056921288452E+08, 2.161295007810375E+08, 3.043307180475648E+07,
2461260.500000000, A.D. 2026-Aug-08 00:00:00.0000, 2.869774007863414E+08, 2.248769076890605E+08, 3.132871724085942E+07,
2461267.500000000, A.D. 2026-Aug-15 00:00:00.0000, 2.795648188254434E+08, 2.334015277387354E+08, 3.219332500689319E+07,
2461274.500000000, A.D. 2026-Aug-22 00:00:00.0000, 2.718745484232697E+08, 2.416942967819871E+08, 3.302595313163665E+07,
2461281.500000000, A.D. 2026-Aug-29 00:00:00.0000, 2.639134785609546E+08, 2.497463121182214E+08, 3.382568349363054E+07,
2461288.500000000, A.D. 2026-Sep-05 00:00:00.0000, 2.556887815622760E+08, 2.575488397835887E+08, 3.459162283884959E+07,
$$EOE